[{"OBJECT_NAME":"SAUDISAT 3","OBJECT_ID":"2007-012B","EPOCH":"2026-03-09T20:05:49.413408","MEAN_MOTION":14.71354049,"ECCENTRICITY":0.00145843,"INCLINATION":98.1349,"RA_OF_ASC_NODE":19.2397,"ARG_OF_PERICENTER":178.409,"MEAN_ANOMALY":181.7165,"EPHEMERIS_TYPE":0,"CLASSIFICATION_TYPE":"U","NORAD_CAT_ID":31118,"ELEMENT_SET_NO":999,"REV_AT_EPOCH":1313,"BSTAR":8.9295518e-5,"MEAN_MOTION_DOT":5.02e-6,"MEAN_MOTION_DDOT":0},{"OBJECT_NAME":"COSMOS 2251 DEB","OBJECT_ID":"1993-036BT","EPOCH":"2026-03-09T22:44:00.919104","MEAN_MOTION":14.52927931,"ECCENTRICITY":0.00841824,"INCLINATION":74.0629,"RA_OF_ASC_NODE":245.7917,"ARG_OF_PERICENTER":269.0334,"MEAN_ANOMALY":207.5034,"EPHEMERIS_TYPE":0,"CLASSIFICATION_TYPE":"U","NORAD_CAT_ID":33826,"ELEMENT_SET_NO":999,"REV_AT_EPOCH":89035,"BSTAR":0.0021588922,"MEAN_MOTION_DOT":9.302e-5,"MEAN_MOTION_DDOT":0}]
